NORAD_CAT_ID,OBJECT_NAME,OBJECT_TYPE,EPOCH,MEAN_MOTION,ECCENTRICITY,INCLINATION,RA_OF_ASC_NODE,ARG_OF_PERICENTER,MEAN_ANOMALY,BSTAR,MEAN_MOTION_DOT,MEAN_MOTION_DDOT,TLE_LINE0,TLE_LINE1,TLE_LINE2,SEMIMAJOR_AXIS,PERIOD,APOGEE,PERIGEE,DECAYED
55784.0,STARLINK-5797,PAYLOAD,2023-09-28 02:29:25,14.98326338,0.0002921,69.9978,297.5801,270.9735,89.1089,3.4068e-05,3.13e-06,0.0,0 STARLINK-5797,1 55784U 23028AV  23271.10376639  .00000313  00000-0  34068-4 0  9996,2 55784  69.9978 297.5801 0002921 270.9735  89.1089 14.98326338 33174,6950.204,96.107,574.099,570.039,0.0
55784.0,STARLINK-5797,PAYLOAD,2023-09-28 12:06:13,14.98326689,0.0002936,69.998,296.5702,270.8444,89.2378,3.2028e-05,2.89e-06,0.0,0 STARLINK-5797,1 55784U 23028AV  23271.50432690  .00000289  00000-0  32028-4 0  9996,2 55784  69.9980 296.5702 0002936 270.8444  89.2378 14.98326689 33236,6950.203,96.107,574.109,570.028,0.0
55784.0,STARLINK-5797,PAYLOAD,2023-09-29 10:32:06,14.98355655,0.0002722,69.9983,294.2133,275.1673,84.9175,-0.00040223,-4.892e-05,0.0,0 STARLINK-5797,1 55784U 23028AV  23272.43895930 -.00004892  00000-0 -40223-3 0  9990,2 55784  69.9983 294.2133 0002722 275.1673  84.9175 14.98355655 33374,6950.114,96.105,573.87,570.087,0.0
55784.0,STARLINK-5797,PAYLOAD,2023-09-30 04:09:35,14.98327998,0.00029,69.9985,292.3623,266.321,93.7617,1.3361e-05,6.6e-07,0.0,0 STARLINK-5797,1 55784U 23028AV  23273.17332491  .00000066  00000-0  13361-4 0  9991,2 55784  69.9985 292.3623 0002900 266.3210  93.7617 14.98327998 33486,6950.199,96.107,574.08,570.049,0.0
55784.0,STARLINK-5797,PAYLOAD,2023-09-30 05:45:43,14.98327602,0.0002906,69.9985,292.1939,265.9181,94.1646,8.7486e-06,1.1e-07,0.0,0 STARLINK-5797,1 55784U 23028AV  23273.24008530  .00000011  00000-0  87486-5 0  9993,2 55784  69.9985 292.1939 0002906 265.9181  94.1646 14.98327602 33492,6950.2,96.107,574.085,570.046,0.0
55784.0,STARLINK-5797,PAYLOAD,2023-10-01 10:36:07,14.98337943,0.0003013,69.9985,289.1634,271.3807,88.7007,6.429e-05,6.74e-06,0.0,0 STARLINK-5797,1 55784U 23028AV  23274.44175623  .00000674  00000-0  64290-4 0  9996,2 55784  69.9985 289.1634 0003013 271.3807  88.7007 14.98337943 33675,6950.168,96.106,574.127,569.939,0.0
55784.0,STARLINK-5797,PAYLOAD,2023-10-01 18:36:48,14.9834498,0.0003077,69.9984,288.322,269.7738,90.3068,-0.00025258,-3.107e-05,0.0,0 STARLINK-5797,1 55784U 23028AV  23274.77555787 -.00003107  00000-0 -25258-3 0  9991,2 55784  69.9984 288.3220 0003077 269.7738  90.3068 14.98344980 33721,6950.147,96.106,574.15,569.873,0.0
55784.0,STARLINK-5797,PAYLOAD,2023-10-02 02:37:29,14.98323115,0.000293,69.9986,287.4805,270.4676,89.6147,-2.4979e-05,-3.91e-06,0.0,0 STARLINK-5797,1 55784U 23028AV  23275.10936762 -.00000391  00000-0 -24979-4 0  9997,2 55784  69.9986 287.4805 0002930 270.4676  89.6147 14.98323115 33770,6950.214,96.107,574.116,570.043,0.0
55784.0,STARLINK-5797,PAYLOAD,2023-10-02 18:38:49,14.98327951,0.0002989,69.9986,285.7965,268.5583,91.5234,-8.8006e-06,-1.98e-06,0.0,0 STARLINK-5797,1 55784U 23028AV  23275.77696545 -.00000198  00000-0 -88006-5 0  9999,2 55784  69.9986 285.7965 0002989 268.5583  91.5234 14.98327951 33879,6950.199,96.107,574.142,569.987,0.0
55784.0,STARLINK-5797,PAYLOAD,2023-10-03 04:15:37,14.98331995,0.0002945,69.9985,284.7863,268.5137,91.5685,-2.4253e-05,-3.82e-06,0.0,0 STARLINK-5797,1 55784U 23028AV  23276.17752305 -.00000382  00000-0 -24253-4 0  9999,2 55784  69.9985 284.7863 0002945 268.5137  91.5685 14.98331995 33931,6950.187,96.107,574.099,570.005,0.0
55784.0,STARLINK-5797,PAYLOAD,2023-10-03 10:40:10,14.98334811,0.0002988,69.9986,284.1132,268.7841,91.2976,-1.248e-05,-2.42e-06,0.0,0 STARLINK-5797,1 55784U 23028AV  23276.44456040 -.00000242  00000-0 -12480-4 0  9990,2 55784  69.9986 284.1132 0002988 268.7841  91.2976 14.98334811 33970,6950.178,96.107,574.12,569.966,0.0
55784.0,STARLINK-5797,PAYLOAD,2023-10-04 10:42:11,14.98329412,0.0003001,69.9986,281.5883,268.8599,91.2216,5.9814e-05,6.21e-06,0.0,0 STARLINK-5797,1 55784U 23028AV  23277.44596158  .00000621  00000-0  59814-4 0  9997,2 55784  69.9986 281.5883 0003001 268.8599  91.2216 14.98329412 34128,6950.195,96.107,574.145,569.974,0.0
55784.0,STARLINK-5797,PAYLOAD,2023-10-04 18:42:51,14.9832931,0.0003001,69.9987,280.7466,268.982,91.0995,3.8322e-05,3.64e-06,0.0,0 STARLINK-5797,1 55784U 23028AV  23277.77976216  .00000364  00000-0  38322-4 0  9995,2 55784  69.9987 280.7466 0003001 268.9820  91.0995 14.98329310 34179,6950.195,96.107,574.146,569.974,0.0
55784.0,STARLINK-5797,PAYLOAD,2023-10-05 09:08:03,14.98334331,0.0002962,69.9987,279.2315,269.8547,90.2273,2.2855e-05,1.8e-06,0.0,0 STARLINK-5797,1 55784U 23028AV  23278.38059879  .00000180  00000-0  22855-4 0  9990,2 55784  69.9987 279.2315 0002962 269.8547  90.2273 14.98334331 34265,6950.179,96.107,574.103,569.986,0.0
55784.0,STARLINK-5797,PAYLOAD,2023-10-05 17:08:44,14.98330184,0.0002946,69.9988,278.3897,270.6927,89.3894,-2.3746e-05,-3.76e-06,0.0,0 STARLINK-5797,1 55784U 23028AV  23278.71440209 -.00000376  00000-0 -23746-4 0  9997,2 55784  69.9988 278.3897 0002946 270.6927  89.3894 14.98330184 34311,6950.192,96.107,574.105,570.01,0.0
55784.0,STARLINK-5797,PAYLOAD,2023-10-06 09:10:04,14.98329856,0.0002952,69.9989,276.7064,271.3842,88.6979,-1.6546e-05,-2.9e-06,0.0,0 STARLINK-5797,1 55784U 23028AV  23279.38200208 -.00000290  00000-0 -16546-4 0  9999,2 55784  69.9989 276.7064 0002952 271.3842  88.6979 14.98329856 34412,6950.193,96.107,574.11,570.007,0.0
55784.0,STARLINK-5797,PAYLOAD,2023-10-06 17:10:45,14.98329807,0.0002952,69.9989,275.8647,271.1373,88.9448,-1.5246e-05,-2.75e-06,0.0,0 STARLINK-5797,1 55784U 23028AV  23279.71580192 -.00000275  00000-0 -15246-4 0  9998,2 55784  69.9989 275.8647 0002952 271.1373  88.9448 14.98329807 34461,6950.193,96.107,574.11,570.007,0.0
55784.0,STARLINK-5797,PAYLOAD,2023-10-07 12:24:21,14.98334404,0.0002996,69.9987,273.845,270.1048,89.9768,6.2672e-06,-1.8e-07,0.0,0 STARLINK-5797,1 55784U 23028AV  23280.51691788 -.00000018  00000-0  62672-5 0  9992,2 55784  69.9987 273.8450 0002996 270.1048  89.9768 14.98334404 34583,6950.179,96.107,574.127,569.962,0.0
55784.0,STARLINK-5797,PAYLOAD,2023-10-08 02:49:34,14.98328409,0.0002969,69.999,272.3304,269.9861,90.0958,2.9484e-06,-5.8e-07,0.0,0 STARLINK-5797,1 55784U 23028AV  23281.11776188 -.00000058  00000-0  29484-5 0  9995,2 55784  69.9990 272.3304 0002969 269.9861  90.0958 14.98328409 34670,6950.198,96.107,574.126,569.999,0.0
55784.0,STARLINK-5797,PAYLOAD,2023-10-08 10:50:14,14.9833413,0.0003017,69.9989,271.4883,268.8708,91.2105,6.3259e-05,6.62e-06,0.0,0 STARLINK-5797,1 55784U 23028AV  23281.45155611  .00000662  00000-0  63259-4 0  9991,2 55784  69.9989 271.4883 0003017 268.8708  91.2105 14.98334130 34724,6950.18,96.107,574.142,569.948,0.0
55784.0,STARLINK-5797,PAYLOAD,2023-10-08 17:14:47,14.98327377,0.0002963,69.9993,270.814,268.4561,91.6258,7.4446e-05,7.95e-06,0.0,0 STARLINK-5797,1 55784U 23028AV  23281.71859995  .00000795  00000-0  74446-4 0  9993,2 55784  69.9993 270.8140 0002963 268.4561  91.6258 14.98327377 34762,6950.201,96.107,574.125,570.007,0.0
55784.0,STARLINK-5797,PAYLOAD,2023-10-09 02:51:35,14.98328159,0.0002865,69.9996,269.8049,271.164,88.9191,1.1816e-05,4.8e-07,0.0,0 STARLINK-5797,1 55784U 23028AV  23282.11916114  .00000048  00000-0  11816-4 0  9998,2 55784  69.9996 269.8049 0002865 271.1640  88.9191 14.98328159 34822,6950.199,96.107,574.055,570.072,0.0
55784.0,STARLINK-5797,PAYLOAD,2023-10-09 10:52:15,14.9833197,0.0002845,69.9994,268.9632,269.4368,90.6465,3.3231e-05,3.04e-06,0.0,0 STARLINK-5797,1 55784U 23028AV  23282.45295797  .00000304  00000-0  33231-4 0  9992,2 55784  69.9994 268.9632 0002845 269.4368  90.6465 14.98331970 34877,6950.187,96.107,574.029,570.074,0.0
55784.0,STARLINK-5797,PAYLOAD,2023-10-10 02:53:36,14.98329278,0.0002812,69.9994,267.2799,267.6032,92.4805,-4.387e-06,-1.45e-06,0.0,0 STARLINK-5797,1 55784U 23028AV  23283.12056009 -.00000145  00000-0 -43870-5 0  9994,2 55784  69.9994 267.2799 0002812 267.6032  92.4805 14.98329278 34972,6950.195,96.107,574.015,570.106,0.0
55784.0,STARLINK-5797,PAYLOAD,2023-10-10 09:18:08,14.98330929,0.000274,69.9997,266.6068,267.0167,93.0679,6.9064e-05,7.31e-06,0.0,0 STARLINK-5797,1 55784U 23028AV  23283.38759678  .00000731  00000-0  69064-4 0  9995,2 55784  69.9997 266.6068 0002740 267.0167  93.0679 14.98330929 35017,6950.19,96.107,573.959,570.151,0.0
55784.0,STARLINK-5797,PAYLOAD,2023-10-10 15:42:40,14.98330015,0.0002883,69.9995,265.9335,269.9144,90.1685,-4.3313e-05,-6.1e-06,0.0,0 STARLINK-5797,1 55784U 23028AV  23283.65463973 -.00000610  00000-0 -43313-4 0  9992,2 55784  69.9995 265.9335 0002883 269.9144  90.1685 14.98330015 35053,6950.193,96.107,574.062,570.054,0.0
55784.0,STARLINK-5797,PAYLOAD,2023-10-11 02:55:37,14.98325419,0.0002809,69.9996,264.7552,270.891,89.1927,-4.5988e-05,-6.42e-06,0.0,0 STARLINK-5797,1 55784U 23028AV  23284.12196340 -.00000642  00000-0 -45988-4 0  9991,2 55784  69.9996 264.7552 0002809 270.8910  89.1927 14.98325419 35129,6950.207,96.107,574.024,570.12,0.0
55784.0,STARLINK-5797,PAYLOAD,2023-10-11 07:44:01,14.98337961,0.0002579,69.9997,264.2505,267.9826,92.1038,-0.00019208,-2.384e-05,0.0,0 STARLINK-5797,1 55784U 23028AV  23284.32223941 -.00002384  00000-0 -19208-3 0  9991,2 55784  69.9997 264.2505 0002579 267.9826  92.1038 14.98337961 35155,6950.168,96.106,573.826,570.241,0.0
55784.0,STARLINK-5797,PAYLOAD,2023-10-11 15:44:42,14.98327234,0.0002799,69.9996,263.4088,270.8747,89.2092,-4.4087e-05,-6.19e-06,0.0,0 STARLINK-5797,1 55784U 23028AV  23284.65604293 -.00000619  00000-0 -44087-4 0  9993,2 55784  69.9996 263.4088 0002799 270.8747  89.2092 14.98327234 35205,6950.201,96.107,574.012,570.121,0.0
55784.0,STARLINK-5797,PAYLOAD,2023-10-12 09:22:10,14.98332133,0.0002809,69.9996,261.5576,266.3911,93.6927,-8.3222e-07,-1.03e-06,0.0,0 STARLINK-5797,1 55784U 23028AV  23285.39039829 -.00000103  00000-0 -83222-6 0  9996,2 55784  69.9996 261.5576 0002809 266.3911  93.6927 14.98332133 35313,6950.186,96.107,574.004,570.099,0.0
